ONEWEB-0331             
1 49198U 21083N   24120.50377138 -.00000003  00000+0 -39118-4 0  9998
2 49198  87.9124 130.4641 0002130  86.2903 273.8472 13.18687833127389
ONEWEB-0333             
1 49199U 21083P   24120.52930316  .00000066  00000+0  14715-3 0  9996
2 49199  87.8894 115.2546 0001856  92.3294 267.8048 13.13469564128694
ONEWEB-0334             
1 49200U 21083Q   24120.55844096  .00000088  00000+0  18376-3 0  9992
2 49200  87.9190  69.4073 0001352 100.9604 259.1681 13.20773431134013
ONEWEB-0335             
1 49201U 21083R   24120.52454171  .00000213  00000+0  54840-3 0  9997
2 49201  87.8895 115.2440 0002144  87.9993 272.1381 13.13468791128701
ONEWEB-0336             
1 49202U 21083S   24120.49438693  .00000001  00000+0 -32396-4 0  9994
2 49202  87.8894 115.2468 0001839  88.9966 271.1374 13.13471443128699
ONEWEB-0337             
1 49203U 21083T   24120.50377744  .00000267  00000+0  69555-3 0  9995
2 49203  87.8894 115.2436 0002158  88.2383 271.8993 13.13469457128692
ONEWEB-0338             
1 49204U 21083U   24120.56474965  .00000087  00000+0  18179-3 0  9991
2 49204  87.9195  69.3867 0001914  95.3032 264.8320 13.20768993134030
ONEWEB-0339             
1 49205U 21083V   24120.51502166  .00000338  00000+0  89155-3 0  9993
2 49205  87.8893 115.2375 0002160  90.3678 269.7699 13.13470447128677
